start=new Date('2022-08-17T00:00:00.000Z').valueOf();
sats=[{"PERIOD":"95.592","ARG_OF_PERICENTER":"95.0139","CLASSIFICATION_TYPE":"U","NORAD_CAT_ID":"47889","MEAN_ELEMENT_THEORY":"SGP4","RCS_SIZE":"LARGE","GP_ID":"210337102","TLE_LINE1":"1 47889U 21021AF  22228.34123175  .00001404  00000-0  11314-3 0  9996","SITE":"AFETR","APOAPSIS":"548.139","FILE":"3537973","TLE_LINE2":"2 47889  53.0550 353.6092 0001319  95.0139 265.1001 15.06396210 80102","MEAN_MOTION":"15.06396210","MEAN_MOTION_DOT":"0.00001404","PERIAPSIS":"546.312","DECAY_DATE":null,"BSTAR":"0.00011314000000","ECCENTRICITY":"0.00013190","LAUNCH_DATE":"2021-03-14","OBJECT_ID":"2021-021AF","COUNTRY_CODE":"US","ELEMENT_SET_NO":"999","SEMIMAJOR_AXIS":"6925.360","EPOCH":"2022-08-16T08:11:22.423200","REF_FRAME":"TEME","MEAN_ANOMALY":"265.1001","EPHEMERIS_TYPE":"0","MEAN_MOTION_DDOT":"0.0000000000000","OBJECT_NAME":"STARLINK-2349","TIME_SYSTEM":"UTC","OBJECT_TYPE":"PAYLOAD","CENTER_NAME":"EARTH","REV_AT_EPOCH":"8010","INCLINATION":"53.0550","RA_OF_ASC_NODE":"353.6092"},{"TLE_LINE2":"2 47890  53.0522 288.0897 0002900  26.8584 333.2570 15.42181502 80070","SITE":"AFETR","APOAPSIS":"441.651","FILE":"3538178","PERIAPSIS":"437.697","DECAY_DATE":null,"MEAN_MOTION":"15.42181502","MEAN_MOTION_DOT":"0.00012737","MEAN_ELEMENT_THEORY":"SGP4","NORAD_CAT_ID":"47890","PERIOD":"93.374","ARG_OF_PERICENTER":"26.8584","CLASSIFICATION_TYPE":"U","TLE_LINE1":"1 47890U 21021AG  22228.82388919  .00012737  00000-0  30141-3 0  9990","RCS_SIZE":"LARGE","GP_ID":"210366576","TIME_SYSTEM":"UTC","OBJECT_TYPE":"PAYLOAD","REV_AT_EPOCH":"8007","CENTER_NAME":"EARTH","MEAN_MOTION_DDOT":"0.0000000000000","OBJECT_NAME":"STARLINK-2350","RA_OF_ASC_NODE":"288.0897","INCLINATION":"53.0522","ECCENTRICITY":"0.00029000","LAUNCH_DATE":"2021-03-14","BSTAR":"0.00030141000000","SEMIMAJOR_AXIS":"6817.809","REF_FRAME":"TEME","EPOCH":"2022-08-16T19:46:24.026016","MEAN_ANOMALY":"333.2570","EPHEMERIS_TYPE":"0","OBJECT_ID":"2021-021AG","COUNTRY_CODE":"US","ELEMENT_SET_NO":"999"},{"TLE_LINE2":"2 47891  53.0565   1.4915 0001019  85.0514 275.0592 15.06391111 80140","SITE":"AFETR","APOAPSIS":"547.946","FILE":"3538178","PERIAPSIS":"546.535","DECAY_DATE":null,"MEAN_MOTION":"15.06391111","MEAN_MOTION_DOT":"0.00000901","MEAN_ELEMENT_THEORY":"SGP4","NORAD_CAT_ID":"47891","PERIOD":"95.593","ARG_OF_PERICENTER":"85.0514","CLASSIFICATION_TYPE":"U","TLE_LINE1":"1 47891U 21021AH  22228.81211219  .00000901  00000-0  79379-4 0  9995","RCS_SIZE":"LARGE","GP_ID":"210366828","TIME_SYSTEM":"UTC","OBJECT_TYPE":"PAYLOAD","CENTER_NAME":"EARTH","REV_AT_EPOCH":"8014","MEAN_MOTION_DDOT":"0.0000000000000","OBJECT_NAME":"STARLINK-2351","RA_OF_ASC_NODE":"1.4915","INCLINATION":"53.0565","ECCENTRICITY":"0.00010190","LAUNCH_DATE":"2021-03-14","BSTAR":"0.00007937900000","SEMIMAJOR_AXIS":"6925.376","REF_FRAME":"TEME","MEAN_ANOMALY":"275.0592","EPOCH":"2022-08-16T19:29:26.493216","EPHEMERIS_TYPE":"0","COUNTRY_CODE":"US","OBJECT_ID":"2021-021AH","ELEMENT_SET_NO":"999"},{"RCS_SIZE":"LARGE","GP_ID":"210367578","TLE_LINE1":"1 47892U 21021AJ  22228.65901087  .00000954  00000-0  63519-4 0  9994","ARG_OF_PERICENTER":"44.3744","CLASSIFICATION_TYPE":"U","PERIOD":"94.930","MEAN_ELEMENT_THEORY":"SGP4","NORAD_CAT_ID":"47892","MEAN_MOTION":"15.16900165","MEAN_MOTION_DOT":"0.00000954","DECAY_DATE":null,"PERIAPSIS":"513.934","FILE":"3538178","APOAPSIS":"516.501","SITE":"AFETR","TLE_LINE2":"2 47892  53.0552 349.2202 0001862  44.3744 315.7398 15.16900165 80140","COUNTRY_CODE":"US","OBJECT_ID":"2021-021AJ","ELEMENT_SET_NO":"999","EPHEMERIS_TYPE":"0","MEAN_ANOMALY":"315.7398","SEMIMAJOR_AXIS":"6893.353","REF_FRAME":"TEME","EPOCH":"2022-08-16T15:48:58.539168","BSTAR":"0.00006351900000","LAUNCH_DATE":"2021-03-14","ECCENTRICITY":"0.00018620","INCLINATION":"53.0552","RA_OF_ASC_NODE":"349.2202","OBJECT_NAME":"STARLINK-2352","MEAN_MOTION_DDOT":"0.0000000000000","OBJECT_TYPE":"PAYLOAD","REV_AT_EPOCH":"8014","CENTER_NAME":"EARTH","TIME_SYSTEM":"UTC"},{"NORAD_CAT_ID":"47894","MEAN_ELEMENT_THEORY":"SGP4","ARG_OF_PERICENTER":"80.1151","CLASSIFICATION_TYPE":"U","PERIOD":"95.592","TLE_LINE1":"1 47894U 21021AL  22228.70244209  .00000444  00000-0  48708-4 0  9995","RCS_SIZE":"LARGE","GP_ID":"210366326","TLE_LINE2":"2 47894  53.0554 351.9912 0001381  80.1151 279.9994 15.06408694 80050","APOAPSIS":"548.143","FILE":"3538178","SITE":"AFETR","DECAY_DATE":null,"PERIAPSIS":"546.231","MEAN_MOTION":"15.06408694","MEAN_MOTION_DOT":"0.00000444","LAUNCH_DATE":"2021-03-14","ECCENTRICITY":"0.00013810","BSTAR":"0.00004870800000","EPHEMERIS_TYPE":"0","SEMIMAJOR_AXIS":"6925.322","EPOCH":"2022-08-16T16:51:30.996576","MEAN_ANOMALY":"279.9994","REF_FRAME":"TEME","OBJECT_ID":"2021-021AL","COUNTRY_CODE":"US","ELEMENT_SET_NO":"999","OBJECT_TYPE":"PAYLOAD","REV_AT_EPOCH":"8005","CENTER_NAME":"EARTH","TIME_SYSTEM":"UTC","OBJECT_NAME":"STARLINK-2354","MEAN_MOTION_DDOT":"0.0000000000000","RA_OF_ASC_NODE":"351.9912","INCLINATION":"53.0554"},{"COUNTRY_CODE":"US","OBJECT_ID":"2021-021AM","ELEMENT_SET_NO":"999","SEMIMAJOR_AXIS":"6925.343","REF_FRAME":"TEME","MEAN_ANOMALY":"269.0389","EPOCH":"2022-08-16T17:07:26.866560","EPHEMERIS_TYPE":"0","BSTAR":"0.00009402100000","ECCENTRICITY":"0.00013900","LAUNCH_DATE":"2021-03-14","RA_OF_ASC_NODE":"351.9292","INCLINATION":"53.0542","MEAN_MOTION_DDOT":"0.0000000000000","OBJECT_NAME":"STARLINK-2355","TIME_SYSTEM":"UTC","OBJECT_TYPE":"PAYLOAD","REV_AT_EPOCH":"8008","CENTER_NAME":"EARTH","RCS_SIZE":"LARGE","GP_ID":"210366077","TLE_LINE1":"1 47895U 21021AM  22228.71350540  .00001119  00000-0  94021-4 0  9992","PERIOD":"95.592","ARG_OF_PERICENTER":"91.0759","CLASSIFICATION_TYPE":"U","NORAD_CAT_ID":"47895","MEAN_ELEMENT_THEORY":"SGP4","MEAN_MOTION":"15.06401720","MEAN_MOTION_DOT":"0.00001119","PERIAPSIS":"546.246","DECAY_DATE":null,"SITE":"AFETR","FILE":"3538178","APOAPSIS":"548.171","TLE_LINE2":"2 47895  53.0542 351.9292 0001390  91.0759 269.0389 15.06401720 80088"},{"MEAN_ELEMENT_THEORY":"SGP4","NORAD_CAT_ID":"47896","PERIOD":"95.592","CLASSIFICATION_TYPE":"U","ARG_OF_PERICENTER":"82.8819","TLE_LINE1":"1 47896U 21021AN  22228.77294263  .00003224  00000-0  23519-3 0  9990","GP_ID":"210367328","RCS_SIZE":"LARGE","TLE_LINE2":"2 47896  53.0541   6.6664 0001423  82.8819 277.2332 15.06405216 79853","SITE":"AFETR","FILE":"3538178","APOAPSIS":"548.183","PERIAPSIS":"546.212","DECAY_DATE":null,"MEAN_MOTION_DOT":"0.00003224","MEAN_MOTION":"15.06405216","ECCENTRICITY":"0.00014230","LAUNCH_DATE":"2021-03-14","BSTAR":"0.00023519000000","SEMIMAJOR_AXIS":"6925.333","MEAN_ANOMALY":"277.2332","REF_FRAME":"TEME","EPOCH":"2022-08-16T18:33:02.243232","EPHEMERIS_TYPE":"0","ELEMENT_SET_NO":"999","COUNTRY_CODE":"US","OBJECT_ID":"2021-021AN","TIME_SYSTEM":"UTC","CENTER_NAME":"EARTH","REV_AT_EPOCH":"7985","OBJECT_TYPE":"PAYLOAD","MEAN_MOTION_DDOT":"0.0000000000000","OBJECT_NAME":"STARLINK-2356","RA_OF_ASC_NODE":"6.6664","INCLINATION":"53.0541"},{"TLE_LINE1":"1 47897U 21021AP  22228.51352553 -.00000490  00000-0 -14005-4 0  9995","RCS_SIZE":"LARGE","GP_ID":"210336851","MEAN_ELEMENT_THEORY":"SGP4","NORAD_CAT_ID":"47897","ARG_OF_PERICENTER":"89.7671","CLASSIFICATION_TYPE":"U","PERIOD":"95.593","DECAY_DATE":null,"PERIAPSIS":"546.381","MEAN_MOTION":"15.06390256","MEAN_MOTION_DOT":"-0.00000490","TLE_LINE2":"2 47897  53.0574 352.8174 0001246  89.7671 270.3460 15.06390256 80087","FILE":"3537973","APOAPSIS":"548.106","SITE":"AFETR","EPHEMERIS_TYPE":"0","EPOCH":"2022-08-16T12:19:28.605792","SEMIMAJOR_AXIS":"6925.378","MEAN_ANOMALY":"270.3460","REF_FRAME":"TEME","ELEMENT_SET_NO":"999","COUNTRY_CODE":"US","OBJECT_ID":"2021-021AP","LAUNCH_DATE":"2021-03-14","ECCENTRICITY":"0.00012460","BSTAR":"-0.00001400500000","RA_OF_ASC_NODE":"352.8174","INCLINATION":"53.0574","OBJECT_TYPE":"PAYLOAD","CENTER_NAME":"EARTH","REV_AT_EPOCH":"8008","TIME_SYSTEM":"UTC","OBJECT_NAME":"STARLINK-2357","MEAN_MOTION_DDOT":"0.0000000000000"},{"RA_OF_ASC_NODE":"352.5668","INCLINATION":"53.0555","MEAN_MOTION_DDOT":"0.0000000000000","OBJECT_NAME":"STARLINK-2358","TIME_SYSTEM":"UTC","OBJECT_TYPE":"PAYLOAD","CENTER_NAME":"EARTH","REV_AT_EPOCH":"8003","OBJECT_ID":"2021-021AQ","COUNTRY_CODE":"US","ELEMENT_SET_NO":"999","SEMIMAJOR_AXIS":"6925.351","EPOCH":"2022-08-16T13:45:44.979264","MEAN_ANOMALY":"268.4246","REF_FRAME":"TEME","EPHEMERIS_TYPE":"0","BSTAR":"0.00011458000000","ECCENTRICITY":"0.00011840","LAUNCH_DATE":"2021-03-14","MEAN_MOTION":"15.06399191","MEAN_MOTION_DOT":"0.00001426","PERIAPSIS":"546.396","DECAY_DATE":null,"SITE":"AFETR","APOAPSIS":"548.036","FILE":"3537973","TLE_LINE2":"2 47898  53.0555 352.5668 0001184  91.6879 268.4246 15.06399191 80037","RCS_SIZE":"LARGE","GP_ID":"210337103","TLE_LINE1":"1 47898U 21021AQ  22228.57343726  .00001426  00000-0  11458-3 0  9990","PERIOD":"95.592","ARG_OF_PERICENTER":"91.6879","CLASSIFICATION_TYPE":"U","NORAD_CAT_ID":"47898","MEAN_ELEMENT_THEORY":"SGP4"},{"BSTAR":"0.00004667800000","LAUNCH_DATE":"2021-03-14","ECCENTRICITY":"0.00013300","OBJECT_ID":"2021-021AR","COUNTRY_CODE":"US","ELEMENT_SET_NO":"999","EPHEMERIS_TYPE":"0","SEMIMAJOR_AXIS":"6925.345","EPOCH":"2022-08-16T20:02:34.367136","MEAN_ANOMALY":"266.8704","REF_FRAME":"TEME","OBJECT_NAME":"STARLINK-2359","MEAN_MOTION_DDOT":"0.0000000000000","OBJECT_TYPE":"PAYLOAD","CENTER_NAME":"EARTH","REV_AT_EPOCH":"8027","TIME_SYSTEM":"UTC","RA_OF_ASC_NODE":"341.3689","INCLINATION":"53.0553","ARG_OF_PERICENTER":"93.2437","CLASSIFICATION_TYPE":"U","PERIOD":"95.592","MEAN_ELEMENT_THEORY":"SGP4","NORAD_CAT_ID":"47899","RCS_SIZE":"LARGE","GP_ID":"210366577","TLE_LINE1":"1 47899U 21021AR  22228.83511999  .00000414  00000-0  46678-4 0  9998","FILE":"3538178","APOAPSIS":"548.131","SITE":"AFETR","TLE_LINE2":"2 47899  53.0553 341.3689 0001330  93.2437 266.8704 15.06401304 80273","MEAN_MOTION":"15.06401304","MEAN_MOTION_DOT":"0.00000414","DECAY_DATE":null,"PERIAPSIS":"546.288"}];
